SL-16 R/B               
1 24298U 96051B   26196.14665072  .00000157  00000+0  11130-3 0  9992
2 24298  70.7646 265.4798 0017798 298.1459  61.7862 14.12456465539643
ORBVIEW 2 (SEASTAR)     
1 24883U 97037A   26196.03891900  .00000089  00000+0  47205-4 0  9993
2 24883  98.8713   3.8334 0003096  61.3335 298.8160 14.35566716526745
SL-16 R/B               
1 25400U 98043G   26195.86655128 -.00000004  00000+0  17284-4 0  9999
2 25400  98.8379 150.2662 0010050  12.4106 347.7319 14.26072659457113
SL-16 R/B               
1 25407U 98045B   26196.20633036 -.00000196  00000+0 -75070-4 0  9991
2 25407  71.0110 273.4052 0008180 206.6320 153.4384 14.16205344445156
ISS (ZARYA)             
1 25544U 98067A   26196.12126347  .00002630  00000+0  55898-4 0  9999
2 25544  51.6305 161.8506 0007251 303.7745  56.2552 15.49005161576086
CZ-4B R/B               
1 25732U 99025C   26196.14665955  .00000016  00000+0  28531-4 0  9998
2 25732  98.6472 237.2795 0036636 339.8742  87.7118 14.18287708406235
OKEAN-O                 
1 25860U 99039A   26196.12565941  .00000268  00000+0  41773-4 0  9999
2 25860  97.9302 254.6007 0000883  86.8271 273.3042 14.80497370453240
SL-16 R/B               
1 25861U 99039B   26196.12151953  .00000219  00000+0  34470-4 0  9996
2 25861  97.9824 254.9028 0014296 198.6806 161.3884 14.81870728455734
DELTA 2 R/B             
1 25876U 99041E   26196.06322078  .00001301  00000+0  24753-3 0  9991
2 25876  51.7613 152.4241 0501379   4.3676 356.1396 14.12084833381024
HELIOS 1B               
1 25977U 99064A   26196.15185589  .00000647  00000+0  76797-4 0  9990
2 25977  98.1585 102.0985 0001938  53.7404 306.3990 14.88075063704213
TERRA                   
1 25994U 99068A   26196.16632031  .00000190  00000+0  47727-4 0  9997
2 25994  97.9442 244.6011 0003410 122.7837 312.7683 14.61123699413697
SL-16 R/B               
1 26070U 00006B   26196.18411365 -.00000144  00000+0 -48672-4 0  9995
2 26070  71.0002 189.7562 0017188 340.0041  20.0406 14.15838003366608
TITAN 4B R/B            
1 26474U 00047B   26196.14050212  .00001233  00000+0  81691-4 0  9990
2 26474  67.9873  41.8814 0045837 258.8080 100.7916 15.10332932412155
ENVISAT                 
1 27386U 02009A   26195.85116837  .00000017  00000+0  19377-4 0  9997
2 27386  98.3846 146.5548 0001330  83.5093 331.0582 14.39070704277467
IDEFIX & ARIANE 42P R/B 
1 27422U 02021B   26195.81666542  .00000085  00000+0  48864-4 0  9999
2 27422  98.5942 133.0011 0011865 167.5595 192.5883 14.31093652262206
AQUA                    
1 27424U 02022A   26195.50499725  .00000358  00000+0  80864-4 0  9994
2 27424  98.4295 165.3370 0000927 111.8770   0.7592 14.62196472287266
CZ-4B R/B               
1 27432U 02024C   26196.18129367  .00000007  00000+0  26611-4 0  9993
2 27432  98.8686 248.8175 0050466  22.0276  47.3418 14.14568259247263
MIDORI II (ADEOS-II)    
1 27597U 02056A   26195.85855374  .00000093  00000+0  54332-4 0  9993
2 27597  98.7894 155.3561 0001492  41.2919 318.8375 14.29362945228467
H-2A R/B                
1 27601U 02056E   26195.92656066  .00000116  00000+0  55126-4 0  9992
2 27601  98.3328 151.5922 0070871 141.7210 286.0147 14.33833815232346
CZ-4B R/B               
1 28059U 03049C   26196.01172677  .00000130  00000+0  41521-4 0  9995
2 28059  98.6909 195.9674 0047639 201.8100 158.1068 14.55116012205113
CZ-2C R/B               
1 28222U 04012C   26196.18172453  .00103407  00000+0  43340-3 0  9999
2 28222  97.7048 275.2324 0011244 190.4105 169.6933 15.85201023224327
SL-16 R/B               
1 28353U 04021B   26195.80965154 -.00000015  00000+0  17067-4 0  9990
2 28353  71.0028 325.7174 0006324 225.4145 134.6462 14.14616433140811
CZ-4B R/B               
1 28415U 04035C   26196.04422502  .00004124  00000+0  13861-3 0  9997
2 28415  97.3355 228.8089 0029232 233.1907 126.6652 15.30990563199383
CZ-2C R/B               
1 28480U 04046B   26195.74750427  .00000060  00000+0  36932-4 0  9997
2 28480  98.1917 102.8022 0140101 138.7113 222.4765 14.27033036126629
ARIANE 5 R/B            
1 28499U 04049H   26196.08431990  .00000219  00000+0  31189-4 0  9994
2 28499  98.2740   9.4192 0082649 298.6537  60.6384 14.85478849164701
CZ-2D R/B               
1 28738U 05024B   26196.05188630  .00045064  00000+0  33465-3 0  9996
2 28738  97.3469 216.9360 0002401 193.0107 167.1096 15.72739019159710
ALOS (DAICHI)           
1 28931U 06002A   26195.86081981  .00000462  00000+0  85198-4 0  9991
2 28931  98.1339 151.3450 0000805  98.0057 262.1241 14.70101363 92161
H-2A R/B                
1 28932U 06002B   26195.99895360  .00004927  00000+0  23530-3 0  9991
2 28932  98.2590 354.3556 0050783 166.6772 193.5814 15.18443281113742
RESURS-DK 1             
1 29228U 06021A   26195.59943744  .00000920  00000+0  57623-4 0  9997
2 29228  69.9308 268.5885 0007075 271.7724  88.2632 15.13317802106727
CZ-4B R/B               
1 29507U 06046C   26196.13835588  .00002419  00000+0  12090-3 0  9994
2 29507  97.5438 240.6597 0032594 182.3092 177.7997 15.17980988 79371
CZ-2C R/B               
1 31114U 07010B   26196.16883631  .00000026  00000+0  31015-4 0  9999
2 31114  98.4119 303.1541 0057776 283.8467  75.6287 14.20281738997816
