OBJECT_NAME,OBJECT_ID,EPOCH,MEAN_MOTION,ECCENTRICITY,INCLINATION,RA_OF_ASC_NODE,ARG_OF_PERICENTER,MEAN_ANOMALY,EPHEMERIS_TYPE,CLASSIFICATION_TYPE,NORAD_CAT_ID,ELEMENT_SET_NO,REV_AT_EPOCH,BSTAR,MEAN_MOTION_DOT,MEAN_MOTION_DDOT
SL-16 R/B,1996-051B,2026-07-15T03:31:10.622208,14.12456465,.0017798,70.7646,265.4798,298.1459,61.7862,0,U,24298,999,53964,.1113E-3,.157E-5,0
ORBVIEW 2 (SEASTAR),1997-037A,2026-07-15T00:56:02.601600,14.35566716,.0003096,98.8713,3.8334,61.3335,298.8160,0,U,24883,999,52674,.47205E-4,.89E-6,0
SL-16 R/B,1998-043G,2026-07-14T20:47:50.030592,14.26072659,.00100509,98.8379,150.2662,12.4106,347.7319,0,U,25400,999,45711,.172844E-4,-.4E-7,0
SL-16 R/B,1998-045B,2026-07-15T04:57:06.943104,14.16205344,.000818,71.0110,273.4052,206.6320,153.4384,0,U,25407,999,44515,-.7507E-4,-.196E-5,0
ISS (ZARYA),1998-067A,2026-07-15T02:54:37.163808,15.49005161,.0007251,51.6305,161.8506,303.7745,56.2552,0,U,25544,999,57608,.55898E-4,.263E-4,0
CZ-4B R/B,1999-025C,2026-07-15T03:31:11.385120,14.18287708,.0036636,98.6472,237.2795,339.8742,87.7118,0,U,25732,999,40623,.28531E-4,.16E-6,0
OKEAN-O,1999-039A,2026-07-15T03:00:56.973024,14.80497370,.0000883,97.9302,254.6007,86.8271,273.3042,0,U,25860,999,45324,.41773E-4,.268E-5,0
SL-16 R/B,1999-039B,2026-07-15T02:54:59.287392,14.81870728,.0014296,97.9824,254.9028,198.6806,161.3884,0,U,25861,999,45573,.3447E-4,.219E-5,0
DELTA 2 R/B,1999-041E,2026-07-15T01:31:02.275392,14.12084833,.0501379,51.7613,152.4241,4.3676,356.1396,0,U,25876,999,38102,.24753E-3,.1301E-4,0
HELIOS 1B,1999-064A,2026-07-15T03:38:40.348896,14.88075063,.0001938,98.1585,102.0985,53.7404,306.3990,0,U,25977,999,70421,.76797E-4,.647E-5,0
TERRA,1999-068A,2026-07-15T03:59:30.074784,14.61123699,.000341,97.9442,244.6011,122.7837,312.7683,0,U,25994,999,41369,.47727E-4,.19E-5,0
SL-16 R/B,2000-006B,2026-07-15T04:25:07.419360,14.15838003,.0017188,71.0002,189.7562,340.0041,20.0406,0,U,26070,999,36660,-.48672E-4,-.144E-5,0
TITAN 4B R/B,2000-047B,2026-07-15T03:22:19.383168,15.10332932,.0045837,67.9873,41.8814,258.8080,100.7916,0,U,26474,999,41215,.81691E-4,.1233E-4,0
ENVISAT,2002-009A,2026-07-14T20:25:40.947168,14.39070704,.00013303,98.3846,146.5548,83.5093,331.0582,0,U,27386,999,27746,.1937711E-4,.17E-6,0
IDEFIX & ARIANE 42P R/B,2002-021B,2026-07-14T19:35:59.892288,14.31093652,.00118654,98.5942,133.0011,167.5595,192.5883,0,U,27422,999,26220,.48864167E-4,.85E-6,0
AQUA,2002-022A,2026-07-14T12:07:11.762400,14.62196472,.0000927,98.4295,165.3370,111.8770,0.7592,0,U,27424,999,28726,.80863616E-4,.358E-5,0
CZ-4B R/B,2002-024C,2026-07-15T04:21:03.773088,14.14568259,.0050466,98.8686,248.8175,22.0276,47.3418,0,U,27432,999,24726,.26611E-4,.7E-7,0
MIDORI II (ADEOS-II),2002-056A,2026-07-14T20:36:19.043136,14.29362945,.00014926,98.7894,155.3561,41.2919,318.8375,0,U,27597,999,22846,.54331714E-4,.93E-6,0
H-2A R/B,2002-056E,2026-07-14T22:14:14.841024,14.33833815,.0070871,98.3328,151.5922,141.7210,286.0147,0,U,27601,999,23234,.55126E-4,.116E-5,0
CZ-4B R/B,2003-049C,2026-07-15T00:16:53.192928,14.55116012,.0047639,98.6909,195.9674,201.8100,158.1068,0,U,28059,999,20511,.41521E-4,.13E-5,0
CZ-2C R/B,2004-012C,2026-07-15T04:21:40.999392,15.85201023,.0011244,97.7048,275.2324,190.4105,169.6933,0,U,28222,999,22432,.4334E-3,.103407E-2,0
SL-16 R/B,2004-021B,2026-07-14T19:25:53.893056,14.14616433,.0006324,71.0028,325.7174,225.4145,134.6462,0,U,28353,999,14081,.17067278E-4,-.15E-6,0
CZ-4B R/B,2004-035C,2026-07-15T01:03:41.041728,15.30990563,.0029232,97.3355,228.8089,233.1907,126.6652,0,U,28415,999,19938,.13861E-3,.4124E-4,0
CZ-2C R/B,2004-046B,2026-07-14T17:56:24.368928,14.27033036,.01401011,98.1917,102.8022,138.7113,222.4765,0,U,28480,999,12662,.36932229E-4,.6E-6,0
ARIANE 5 R/B,2004-049H,2026-07-15T02:01:25.239360,14.85478849,.0082649,98.2740,9.4192,298.6537,60.6384,0,U,28499,999,16470,.31189E-4,.219E-5,0
CZ-2D R/B,2005-024B,2026-07-15T01:14:42.976320,15.72739019,.0002401,97.3469,216.9360,193.0107,167.1096,0,U,28738,999,15971,.33465E-3,.45064E-3,0
ALOS (DAICHI),2006-002A,2026-07-14T20:39:34.831584,14.70101363,.00008056,98.1339,151.3450,98.0057,262.1241,0,U,28931,999,9216,.85198024E-4,.462E-5,0
H-2A R/B,2006-002B,2026-07-14T23:58:29.591040,15.18443281,.0050783,98.2590,354.3556,166.6772,193.5814,0,U,28932,999,11374,.2353E-3,.4927E-4,0
RESURS-DK 1,2006-021A,2026-07-14T14:23:11.394816,15.13317802,.0007075,69.9308,268.5885,271.7724,88.2632,0,U,29228,999,10672,.57623E-4,.92E-5,0
CZ-4B R/B,2006-046C,2026-07-15T03:19:13.948032,15.17980988,.0032594,97.5438,240.6597,182.3092,177.7997,0,U,29507,999,7937,.1209E-3,.2419E-4,0
CZ-2C R/B,2007-010B,2026-07-15T04:03:07.457184,14.20281738,.0057776,98.4119,303.1541,283.8467,75.6287,0,U,31114,999,99781,.31015E-4,.26E-6,0
